LEMUR-2-PETERG          
1 42841U 17042S   26068.48235713  .00023240  00000+0  81076-3 0  9993
2 42841  97.3980 253.6596 0003700 341.6938  18.4169 15.29611459473171
STARLINK-34172          
1 64173U 25113D   26068.45586754  .00027913  00000+0  95098-3 0  9994
2 64173  53.1600  91.9121 0001490  63.0337 297.0816 15.30200712 44997
